{
  "type": "FeatureCollection",
  "features": [
    {
      "type": "Feature",
      "properties": {
        "norad_id": 66443,
        "name": "STARLINK-35219",
        "group": "last-30-days",
        "lat": -25.877990626054313,
        "lon": 56.536966093185626,
        "alt_km": 417.1618509236796,
        "timestamp": "2025-12-05T18:53:12.095959+00:00",
        "meta_object_name": "STARLINK-35219",
        "meta_object_id": "2025-259X",
        "meta_epoch": "2025-12-05T00:00:02.999808",
        "meta_mean_motion": 15.50617334,
        "meta_eccentricity": 0.00014133,
        "meta_inclination": 43.0007,
        "meta_ra_of_asc_node": 92.5108,
        "meta_arg_of_pericenter": 259.8778,
        "meta_mean_anomaly": 342.5786,
        "meta_ephemeris_type": 0,
        "meta_classification_type": "U",
        "meta_norad_cat_id": 66443,
        "meta_element_set_no": 999,
        "meta_rev_at_epoch": 492,
        "meta_bstar": -0.0014018562,
        "meta_mean_motion_dot": -0.00081839,
        "meta_mean_motion_ddot": 0,
        "tle_line1": "1 66443U 25259X   25339.00003472 -.00081839  00000+0 -14019-2 0  9991",
        "tle_line2": "2 66443  43.0007  92.5108 0001413 259.8778 342.5786 15.50617334  4924"
      },
      "geometry": {
        "type": "Point",
        "coordinates": [
          56.536966093185626,
          -25.877990626054313
        ]
      }
    },
    {
      "type": "Feature",
      "properties": {
        "norad_id": 66444,
        "name": "STARLINK-35360",
        "group": "last-30-days",
        "lat": -22.440756207421387,
        "lon": 61.58352994693648,
        "alt_km": 416.9033712850014,
        "timestamp": "2025-12-05T18:53:12.095969+00:00",
        "meta_object_name": "STARLINK-35360",
        "meta_object_id": "2025-259Y",
        "meta_epoch": "2025-12-05T00:00:02.999808",
        "meta_mean_motion": 15.50610451,
        "meta_eccentricity": 0.00015243,
        "meta_inclination": 43.0006,
        "meta_ra_of_asc_node": 92.4954,
        "meta_arg_of_pericenter": 260.2703,
        "meta_mean_anomaly": 347.9379,
        "meta_ephemeris_type": 0,
        "meta_classification_type": "U",
        "meta_norad_cat_id": 66444,
        "meta_element_set_no": 999,
        "meta_rev_at_epoch": 503,
        "meta_bstar": -0.0011957104,
        "meta_mean_motion_dot": -0.00069943,
        "meta_mean_motion_ddot": 0,
        "tle_line1": "1 66444U 25259Y   25339.00003472 -.00069943  00000+0 -11957-2 0  9992",
        "tle_line2": "2 66444  43.0006  92.4954 0001524 260.2703 347.9379 15.50610451  5032"
      },
      "geometry": {
        "type": "Point",
        "coordinates": [
          61.58352994693648,
          -22.440756207421387
        ]
      }
    },
    {
      "type": "Feature",
      "properties": {
        "norad_id": 66445,
        "name": "STARLINK-34698",
        "group": "last-30-days",
        "lat": -24.74878863559354,
        "lon": 58.25236116328382,
        "alt_km": 417.12272436890635,
        "timestamp": "2025-12-05T18:53:12.095979+00:00",
        "meta_object_name": "STARLINK-34698",
        "meta_object_id": "2025-259Z",
        "meta_epoch": "2025-12-05T00:00:02.999808",
        "meta_mean_motion": 15.50617368,
        "meta_eccentricity": 0.00016044,
        "meta_inclination": 43.0007,
        "meta_ra_of_asc_node": 92.5049,
        "meta_arg_of_pericenter": 254.249,
        "meta_mean_anomaly": 350.1254,
        "meta_ephemeris_type": 0,
        "meta_classification_type": "U",
        "meta_norad_cat_id": 66445,
        "meta_element_set_no": 999,
        "meta_rev_at_epoch": 492,
        "meta_bstar": -0.0013779176,
        "meta_mean_motion_dot": -0.00080463,
        "meta_mean_motion_ddot": 0,
        "tle_line1": "1 66445U 25259Z   25339.00003472 -.00080463  00000+0 -13779-2 0  9997",
        "tle_line2": "2 66445  43.0007  92.5049 0001604 254.2490 350.1254 15.50617368  4924"
      },
      "geometry": {
        "type": "Point",
        "coordinates": [
          58.25236116328382,
          -24.74878863559354
        ]
      }
    },
    {
      "type": "Feature",
      "properties": {
        "norad_id": 66446,
        "name": "STARLINK-34986",
        "group": "last-30-days",
        "lat": -23.60112577831586,
        "lon": 59.93629150961937,
        "alt_km": 416.7187660749714,
        "timestamp": "2025-12-05T18:53:12.095993+00:00",
        "meta_object_name": "STARLINK-34986",
        "meta_object_id": "2025-259AA",
        "meta_epoch": "2025-12-05T00:00:02.999808",
        "meta_mean_motion": 15.50593285,
        "meta_eccentricity": 0.0001686,
        "meta_inclination": 43.0007,
        "meta_ra_of_asc_node": 92.5,
        "meta_arg_of_pericenter": 269.6618,
        "meta_mean_anomaly": 336.639,
        "meta_ephemeris_type": 0,
        "meta_classification_type": "U",
        "meta_norad_cat_id": 66446,
        "meta_element_set_no": 999,
        "meta_rev_at_epoch": 503,
        "meta_bstar": -0.00086943847,
        "meta_mean_motion_dot": -0.00051043,
        "meta_mean_motion_ddot": 0,
        "tle_line1": "1 66446U 25259AA  25339.00003472 -.00051043  00000+0 -86944-3 0  9995",
        "tle_line2": "2 66446  43.0007  92.5000 0001686 269.6618 336.6390 15.50593285  5038"
      },
      "geometry": {
        "type": "Point",
        "coordinates": [
          59.93629150961937,
          -23.60112577831586
        ]
      }
    },
    {
      "type": "Feature",
      "properties": {
        "norad_id": 66447,
        "name": "STARLINK-34851",
        "group": "last-30-days",
        "lat": -21.29056160300318,
        "lon": 63.16732761570801,
        "alt_km": 417.02935909161533,
        "timestamp": "2025-12-05T18:53:12.096004+00:00",
        "meta_object_name": "STARLINK-34851",
        "meta_object_id": "2025-259AB",
        "meta_epoch": "2025-12-05T00:00:02.999808",
        "meta_mean_motion": 15.50639288,
        "meta_eccentricity": 0.00012839,
        "meta_inclination": 43.0007,
        "meta_ra_of_asc_node": 92.4909,
        "meta_arg_of_pericenter": 266.6367,
        "meta_mean_anomaly": 343.5057,
        "meta_ephemeris_type": 0,
        "meta_classification_type": "U",
        "meta_norad_cat_id": 66447,
        "meta_element_set_no": 999,
        "meta_rev_at_epoch": 492,
        "meta_bstar": -0.0022816626,
        "meta_mean_motion_dot": -0.00132241,
        "meta_mean_motion_ddot": 0,
        "tle_line1": "1 66447U 25259AB  25339.00003472 -.00132241  00000+0 -22817-2 0  9994",
        "tle_line2": "2 66447  43.0007  92.4909 0001283 266.6367 343.5057 15.50639288  4925"
      },
      "geometry": {
        "type": "Point",
        "coordinates": [
          63.16732761570801,
          -21.29056160300318
        ]
      }
    },
    {
      "type": "Feature",
      "properties": {
        "norad_id": 66448,
        "name": "STARLINK-35355",
        "group": "last-30-days",
        "lat": -20.040991560501418,
        "lon": 64.83815797427187,
        "alt_km": 416.4709672584431,
        "timestamp": "2025-12-05T18:53:12.096016+00:00",
        "meta_object_name": "STARLINK-35355",
        "meta_object_id": "2025-259AC",
        "meta_epoch": "2025-12-05T00:00:02.999808",
        "meta_mean_motion": 15.50585902,
        "meta_eccentricity": 0.00015514,
        "meta_inclination": 43.0008,
        "meta_ra_of_asc_node": 92.4866,
        "meta_arg_of_pericenter": 269.2635,
        "meta_mean_anomaly": 342.7855,
        "meta_ephemeris_type": 0,
        "meta_classification_type": "U",
        "meta_norad_cat_id": 66448,
        "meta_element_set_no": 999,
        "meta_rev_at_epoch": 503,
        "meta_bstar": -0.00038079802,
        "meta_mean_motion_dot": -0.00022622,
        "meta_mean_motion_ddot": 0,
        "tle_line1": "1 66448U 25259AC  25339.00003472 -.00022622  00000+0 -38080-3 0  9996",
        "tle_line2": "2 66448  43.0008  92.4866 0001551 269.2635 342.7855 15.50585902  5037"
      },
      "geometry": {
        "type": "Point",
        "coordinates": [
          64.83815797427187,
          -20.040991560501418
        ]
      }
    },
    {
      "type": "Feature",
      "properties": {
        "norad_id": 66449,
        "name": "STARLINK-34720",
        "group": "last-30-days",
        "lat": -18.85418725583218,
        "lon": 66.38026877126977,
        "alt_km": 416.5815137881036,
        "timestamp": "2025-12-05T18:53:12.096026+00:00",
        "meta_object_name": "STARLINK-34720",
        "meta_object_id": "2025-259AD",
        "meta_epoch": "2025-12-05T00:00:02.999808",
        "meta_mean_motion": 15.5060406,
        "meta_eccentricity": 0.00015763,
        "meta_inclination": 43.0007,
        "meta_ra_of_asc_node": 92.4808,
        "meta_arg_of_pericenter": 263.8051,
        "meta_mean_anomaly": 350.1524,
        "meta_ephemeris_type": 0,
        "meta_classification_type": "U",
        "meta_norad_cat_id": 66449,
        "meta_element_set_no": 999,
        "meta_rev_at_epoch": 492,
        "meta_bstar": -0.0009856421,
        "meta_mean_motion_dot": -0.00057791,
        "meta_mean_motion_ddot": 0,
        "tle_line1": "1 66449U 25259AD  25339.00003472 -.00057791  00000+0 -98564-3 0  9995",
        "tle_line2": "2 66449  43.0007  92.4808 0001576 263.8051 350.1524 15.50604060  4922"
      },
      "geometry": {
        "type": "Point",
        "coordinates": [
          66.38026877126977,
          -18.85418725583218
        ]
      }
    }
  ]
}